[
    {
        "Altitude(m)": 605470.799132008,
        "Argument of Periapsis(deg)": 0.0,
        "Eccentricity": 0.0,
        "Inclination(deg)": 60.0,
        "Latitude(deg)": 27.9882358038787,
        "Longitude(deg)": 97.2629417297217,
        "Mean Anomaly(deg)": 147.2727,
        "RAAN(deg)": 35.0,
        "Satellite Name": "Test1 163",
        "Satellite Number": 163,
        "Semi-Major Axis(m)": 6980739.136638005,
        "Time(s)": 0
    },
    {
        "Altitude(m)": 605395.8369217985,
        "Argument of Periapsis(deg)": 0.00010418945913296404,
        "Eccentricity": 0.0,
        "Inclination(deg)": 60.0,
        "Latitude(deg)": 27.47392656482306,
        "Longitude(deg)": 97.61612971690637,
        "Mean Anomaly(deg)": 147.8928061454618,
        "RAAN(deg)": 34.99957995086025,
        "Satellite Name": "Test1 163",
        "Satellite Number": 163,
        "Semi-Major Axis(m)": 6980739.136638005,
        "Time(s)": 10
    }
]